{
    "links": {
        "self": "http://www.neowsapp.com/rest/v1/neo/3739698?api_key=iIulBulltgU6a56xZRHN4H3l9WmuAYTsLGpBGhQ2"
    },
    "id": "3739698",
    "neo_reference_id": "3739698",
    "name": "(2016 AL131)",
    "designation": "2016 AL131",
    "nasa_jpl_url": "http://ssd.jpl.nasa.gov/sbdb.cgi?sstr=3739698",
    "absolute_magnitude_h": 22.2,
    "estimated_diameter": {
        "kilometers": {
            "estimated_diameter_min": 0.096506147,
            "estimated_diameter_max": 0.2157943048
        },
        "meters": {
            "estimated_diameter_min": 96.5061469579,
            "estimated_diameter_max": 215.7943048444
        },
        "miles": {
            "estimated_diameter_min": 0.059966121,
            "estimated_diameter_max": 0.134088323
        },
        "feet": {
            "estimated_diameter_min": 316.6212271853,
            "estimated_diameter_max": 707.9865871058
        }
    },
    "is_potentially_hazardous_asteroid": false,
    "close_approach_data": [
        {
            "close_approach_date": "2016-01-01",
            "close_approach_date_full": "2016-Jan-01 20:04",
            "epoch_date_close_approach": 1451678640000,
            "relative_velocity": {
                "kilometers_per_second": "6.6809480974",
                "kilometers_per_hour": "24051.4131506458",
                "miles_per_hour": "14944.6127990777"
            },
            "miss_distance": {
                "astronomical": "0.324747307",
                "lunar": "126.326702423",
                "kilometers": "48581505.41543609",
                "miles": "30187147.668514442"
            },
            "orbiting_body": "Earth"
        }
    ],
    "orbital_data": {
        "orbit_id": "8",
        "orbit_determination_date": "2017-04-06 08:29:15",
        "first_observation_date": "2016-01-09",
        "last_observation_date": "2016-02-27",
        "data_arc_in_days": 49,
        "observations_used": 26,
        "orbit_uncertainty": "6",
        "minimum_orbit_intersection": ".28888",
        "jupiter_tisserand_invariant": "3.368",
        "epoch_osculation": "2459000.5",
        "eccentricity": ".4772210110690662",
        "semi_major_axis": "2.345535130987766",
        "inclination": "13.14808306566549",
        "ascending_node_longitude": "126.6953268344297",
        "orbital_period": "1312.08309500861",
        "perihelion_distance": "1.22619648427977",
        "perihelion_argument": "313.1799635275225",
        "aphelion_distance": "3.464873777695763",
        "perihelion_time": "2458671.012574784880",
        "mean_anomaly": "90.40240936620316",
        "mean_motion": ".2743728666038773",
        "equinox": "J2000",
        "orbit_class": {
            "orbit_class_type": "AMO",
            "orbit_class_description": "Near-Earth asteroid orbits similar to that of 1221 Amor",
            "orbit_class_range": "1.017 AU < q (perihelion) < 1.3 AU"
        }
    },
    "is_sentry_object": false
}